TRANSPORTER-10 OBJECT AD
1 59125U 24043AD  26068.86032889  .00011954  00000+0  36311-3 0  9997
2 59125  97.5470 207.3753 0008984 221.4908 138.5653 15.34189901112026
STARLINK-35532          
1 66091U 25236F   26068.52066676  .00023933  00000+0  81744-3 0  9996
2 66091  53.1580 104.3062 0001198  93.3164 266.7974 15.30205397 22928
